SHIYAN-13 (SY-13)       
1 51102U 22004A   22044.15205975  .00005178  00000+0  24602-3 0  9990
2 51102  98.6723 108.2272 0652207  67.3602 299.5196 14.19621501  3840
CZ-2D R/B               
1 51103U 22004B   22043.86190340  .00005377  00000+0  25203-3 0  9996
2 51103  98.6725 107.9573 0651629  67.9080 298.9955 14.20061870  3762
STARLINK-3366           
1 51104U 22005A   22043.91667824 -.00116047  00000+0 -83377-3 0  9995
2 51104  53.2166 151.3986 0002181  21.2908 302.0925 15.73199409  3746
STARLINK-3350           
1 51105U 22005B   22044.16668981  .00005434  00000+0  43117-4 0  9993
2 51105  53.2172 150.1558 0002424  33.6289 259.2933 15.73202296  5276
STARLINK-3176           
1 51106U 22005C   22043.91667824  .00020615  00000+0  15142-3 0  9995
2 51106  53.2179 151.4053 0002370  19.4111 300.7583 15.73124194  3747
STARLINK-3368           
1 51107U 22005D   22043.91667824  .00019380  00000+0  14262-3 0  9995
2 51107  53.2175 151.4130 0002276  29.7807 286.0075 15.73127015  3748
STARLINK-3362           
1 51108U 22005E   22044.16668981  .00003361  00000+0  28359-4 0  9994
2 51108  53.2172 150.1547 0002291  32.2243 261.3278 15.73203362  5264
STARLINK-3358           
1 51109U 22005F   22044.16668981  .00048124  00000+0  34686-3 0  9990
2 51109  53.2159 149.4315 0002062  23.9145 265.7606 15.73096025  5289
STARLINK-3344           
1 51110U 22005G   22043.91667824  .00130794  00000+0  92701-3 0  9996
2 51110  53.2159 151.4081 0002477  20.2787 297.9914 15.73068641  3747
STARLINK-3173           
1 51111U 22005H   22043.91667824  .00020812  00000+0  15274-3 0  9996
2 51111  53.2159 151.3989 0002477  15.4551 307.2446 15.73136099  3747
STARLINK-3374           
1 51112U 22005J   22043.91667824  .00126037  00000+0  89450-3 0  9990
2 51112  53.2176 151.4068 0002395  16.4047 302.4868 15.73054737  3749
STARLINK-3372           
1 51113U 22005K   22044.16668981  .00005004  00000+0  40058-4 0  9996
2 51113  53.2173 150.1467 0002511  36.5833 260.7503 15.73202775  5271
STARLINK-3375           
1 51114U 22005L   22044.16668981  .00102822  00000+0  73080-3 0  9993
2 51114  53.2162 150.1713 0002435  29.5125 264.8853 15.73111454  5271
STARLINK-3397           
1 51115U 22005M   22043.91667824  .00020904  00000+0  15344-3 0  9990
2 51115  53.2160 151.3996 0002672  30.8419 291.2538 15.73129202  3744
STARLINK-3243           
1 51116U 22005N   22043.91667824  .00064131  00000+0  46020-3 0  9996
2 51116  53.2162 151.4059 0002417  25.7106 293.8542 15.73079308  3745
STARLINK-3391           
1 51117U 22005P   22043.91667824  .00022318  00000+0  16344-3 0  9994
2 51117  53.2181 151.3949 0002629  26.4044 298.2192 15.73136969  3745
STARLINK-3394           
1 51118U 22005Q   22044.16668981  .00189159  00000+0  13285-2 0  9995
2 51118  53.2172 150.1651 0002484  26.2527 271.8915 15.73084995  5277
STARLINK-3390           
1 51119U 22005R   22043.91667824  .00018597  00000+0  13698-3 0  9999
2 51119  53.2171 151.3920 0002201  20.0243 305.1864 15.73138924  3749
STARLINK-3398           
1 51120U 22005S   22043.91667824  .00020855  00000+0  15308-3 0  9991
2 51120  53.2161 151.3910 0002233  18.9373 307.5481 15.73131456  3748
STARLINK-3399           
1 51121U 22005T   22044.16668981  .00101297  00000+0  71938-3 0  9996
2 51121  53.2177 150.1514 0002563  27.7822 272.9321 15.73136422  5272
STARLINK-3373           
1 51122U 22005U   22044.16668981  .00002317  00000+0  20929-4 0  9995
2 51122  53.2173 150.1364 0002494  37.9870 264.3879 15.73204315  5271
STARLINK-3392           
1 51123U 22005V   22044.16668981  .00000611  00000+0  87763-5 0  9991
2 51123  53.2172 150.1336 0002066  13.7330 289.9027 15.73204862  5240
STARLINK-3389           
1 51124U 22005W   22044.16668981  .00095626  00000+0  67960-3 0  9997
2 51124  53.2165 150.1440 0002162  17.3258 287.2131 15.73144613  5272
STARLINK-3387           
1 51125U 22005X   22043.91667824  .00124260  00000+0  88201-3 0  9993
2 51125  53.2164 151.3840 0002268  23.8228 305.7892 15.73058465  3744
STARLINK-3386           
1 51126U 22005Y   22043.91667824  .00039283  00000+0  28424-3 0  9995
2 51126  53.2164 151.3874 0002365  26.0471 302.3222 15.73096126  3741
STARLINK-3370           
1 51127U 22005Z   22044.16668981  .00000566  00000+0  84559-5 0  9994
2 51127  53.2172 150.1296 0002250  14.3947 291.1317 15.73205009  5279
STARLINK-3400           
1 51128U 22005AA  22044.16668981  .00000930  00000+0  11053-4 0  9998
2 51128  53.2173 150.1206 0002425  30.0196 279.9180 15.73205131  5275
STARLINK-3396           
1 51129U 22005AB  22043.54269744 -.00291304  00000+0 -17327-2 0  9991
2 51129  53.2211 151.7729 0001904  27.0980 333.0141 15.78038094  4077
STARLINK-3395           
1 51130U 22005AC  22044.16668981  .00001751  00000+0  16896-4 0  9993
2 51130  53.2173 150.1272 0002164  22.3126 284.4736 15.73204843  5275
STARLINK-3388           
1 51131U 22005AD  22044.16668981  .00002479  00000+0  22079-4 0  9992
2 51131  53.2173 150.1231 0002330  37.1862 271.4907 15.73204686  5278
STARLINK-3393           
1 51132U 22005AE  22043.91667824  .00029566  00000+0  21516-3 0  9990
2 51132  53.2170 151.3819 0002613  30.7981 300.7196 15.73108075  3747
STARLINK-3356           
1 51133U 22005AF  22044.16668981  .00000310  00000+0  66371-5 0  9990
2 51133  53.2173 150.1191 0002470  29.8596 280.7082 15.73205464  5274
STARLINK-3183           
1 51134U 22005AG  22043.91667824  .00090343  00000+0  64586-3 0  9997
2 51134  53.2119 150.6611 0002395  19.2312 295.0058 15.73029027  3743
STARLINK-3363           
1 51135U 22005AH  22043.91667824  .00019741  00000+0  14526-3 0  9990
2 51135  53.2168 151.3713 0002580  32.6471 302.0286 15.73114999  3745
STARLINK-3253           
1 51136U 22005AJ  22043.57372980 -.00281505  00000+0 -12166-2 0  9997
2 51136  53.2206 151.2415 0001593  42.5671 317.5477 15.84870528  5207
STARLINK-3180           
1 51137U 22005AK  22043.91667824  .00068420  00000+0  49039-3 0  9997
2 51137  53.2177 151.3673 0002518  26.6439 310.5472 15.73081099  3723
STARLINK-3177           
1 51138U 22005AL  22043.91667824  .00020289  00000+0  14905-3 0  9993
2 51138  53.2176 151.3713 0002570  28.7193 306.5351 15.73131815  3741
STARLINK-3172           
1 51139U 22005AM  22044.16668981  .00099537  00000+0  70818-3 0  9994
2 51139  53.2181 150.1273 0002214  22.5300 292.6142 15.73101549  5277
STARLINK-3175           
1 51140U 22005AN  22044.16668981  .00205530  00000+0  14405-2 0  9997
2 51140  53.2176 150.1299 0002401  24.4857 288.7797 15.73081465  5273
STARLINK-3179           
1 51141U 22005AP  22043.91667824  .00022116  00000+0  16210-3 0  9999
2 51141  53.2175 151.3613 0002479  23.2830 316.4208 15.73123395  3744
STARLINK-3369           
1 51142U 22005AQ  22043.91667824 -.00114871  00000+0 -82331-3 0  9999
2 51142  53.2166 151.3705 0002305  19.2318 316.8101 15.73250982  3740
STARLINK-3184           
1 51143U 22005AR  22044.16668981  .00119784  00000+0  84995-3 0  9997
2 51143  53.2176 150.1189 0002264  21.8295 296.4631 15.73083240  5274
STARLINK-3185           
1 51144U 22005AS  22044.16668981  .00171659  00000+0  12090-2 0  9993
2 51144  53.2178 150.1259 0002306  18.0510 297.7242 15.73076020  5270
STARLINK-3365           
1 51145U 22005AT  22044.16668981 -.00001061  00000+0 -31282-5 0  9992
2 51145  53.2173 150.1017 0002283  20.5567 298.2041 15.73206324  5277
STARLINK-3354           
1 51146U 22005AU  22043.91667824  .00142230  00000+0  10069-2 0  9999
2 51146  53.2165 151.3667 0002381  17.4561 320.3421 15.73055081  3742
STARLINK-3352           
1 51147U 22005AV  22044.16668981 -.00000980  00000+0 -25558-5 0  9992
2 51147  53.2172 150.1043 0002204  29.8164 287.6842 15.73206035  5275
STARLINK-3359           
1 51148U 22005AW  22043.91667824  .00019384  00000+0  14256-3 0  9997
2 51148  53.2170 151.3566 0002124  18.5463 324.3422 15.73141332  3746
STARLINK-3360           
1 51149U 22005AX  22044.16668981 -.00001820  00000+0 -85354-5 0  9998
2 51149  53.2173 150.0991 0002412  29.1418 290.8802 15.73206127  5279
STARLINK-3357           
1 51150U 22005AY  22043.91667824  .00020795  00000+0  15268-3 0  9992
2 51150  53.2168 151.3622 0002480  24.0125 316.3290 15.73126978  3744
STARLINK-3361           
1 51151U 22005AZ  22044.16668981 -.00002019  00000+0 -99529-5 0  9991
2 51151  53.2172 150.0965 0002223  21.2592 300.0226 15.73206645  5277
STARLINK-3364           
1 51152U 22005BA  22043.91667824 -.00094586  00000+0 -67687-3 0  9997
2 51152  53.2166 151.3536 0002304  15.1287 329.0382 15.73204226  3749
L-SAR 01A               
1 51284U 22007A   22044.17265973  .00002464  00000+0  27158-3 0  9994
2 51284  97.8096  53.3152 0001869  88.7876 271.3506 14.88422715  2703
CZ-4C R/B               
1 51285U 22007B   22043.92405523  .00005460  00000+0  23921-3 0  9997
2 51285  97.8455  53.9235 0123300 330.2857  29.1408 15.15800191  2710
CZ-4C DEB               
1 51286U 22007C   22040.96708496  .00523041  00000+0  79913-1 0  9994
2 51286  97.7881  49.4853 0112876 160.7850 199.7665 14.67057094  2197
ASCENT                  
1 51287U 21118E   22037.20605106 -.00000057  00000+0  00000+0 0  9991
2 51287   0.1323 113.8875 0002651 136.3445 187.7236  1.01234817   200
ELSA-D CLIENT           
1 51288U 21022AQ  22043.92136078  .00003979  00000+0  26837-3 0  9994
2 51288  97.5407 306.3959 0017885 199.1079 160.9480 15.07085580  2805
GASPACS                 
1 51439U 98067TB  22043.90847630  .00078983  00000+0  12636-2 0  9994
2 51439  51.6395 231.8658 0006739 135.2864 224.8670 15.52414671  2737
1998-067TC              
1 51440U 98067TC  22043.90441406  .00108968  00000+0  16854-2 0  9990
2 51440  51.6397 231.8393 0006261 137.6876 222.4598 15.53204460  2799
1998-067TD              
1 51441U 98067TD  22043.91412574  .00031723  00000+0  53865-3 0  9994
2 51441  51.6400 231.9032 0007990 139.9166 220.2415 15.51151029  2786
